SAR-LUPE 2              
1 31797U 07030A   26169.83134163  .00009873  00000+0  17526-3 0  9990
2 31797  98.1040 274.4678 0004019 155.9994 204.1444 15.50457549 57191
SAPPHIRE                
1 39088U 13009C   26169.83501782  .00000072  00000+0  40288-4 0  9993
2 39088  98.4262 349.2516 0010122 241.1644 118.8526 14.35240959696812
PRAETORIAN SDA_602      
1 65565U 25203A   26169.83092832  .00000049  00000+0  33229-4 0  9993
2 65565  81.3030   9.2458 0005867 179.4644 180.6520 13.84342963 38920
PRAETORIAN SDA_603      
1 65566U 25203B   26169.78583769  .00000103  00000+0  82204-4 0  9990
2 65566  81.3031   9.2056 0009385 182.9234 177.1869 13.83906194 38927
PRAETORIAN SDA_604      
1 65567U 25203C   26169.80654375  .00000047  00000+0  32168-4 0  9997
2 65567  81.3052   9.6010 0005356 186.7768 173.3317 13.83047624 38901
PRAETORIAN SDA_605      
1 65568U 25203D   26169.84374838  .00000036  00000+0  21571-4 0  9999
2 65568  81.3018   9.2280 0008166 178.4898 181.6284 13.83434281 38929
PRAETORIAN SDA_606      
1 65569U 25203E   26168.30750804  .00000053  00000+0  37439-4 0  9990
2 65569  81.3055  10.8712 0005744 180.4388 179.6764 13.83407378 38708
PRAETORIAN SDA_607      
1 65570U 25203F   26169.83332352  .00000187  00000+0  15654-3 0  9997
2 65570  81.3038   9.1206 0008746 182.7265 177.3845 13.84284783 38938
PRAETORIAN SDA_608      
1 65571U 25203G   26169.30515362  .00000053  00000+0  37325-4 0  9996
2 65571  81.3006   9.7723 0005822 187.5638 172.5432 13.83816974 38844
PRAETORIAN SDA_609      
1 65572U 25203H   26169.81572270  .00000204  00000+0  17274-3 0  9992
2 65572  81.3048   9.2820 0006836 180.0064 180.1094 13.84209464 38920
PRAETORIAN SDA_610      
1 65573U 25203J   26169.06797639  .00000038  00000+0  23778-4 0  9990
2 65573  81.3007   9.9498 0006474 186.0221 174.0859 13.83851939 38811
PRAETORIAN SDA_611      
1 65574U 25203K   26169.79240083  .00000357  00000+0  31423-3 0  9996
2 65574  81.3004   9.4460 0005311 189.7227 170.3827 13.83310007 38908
PRAETORIAN SDA_612      
1 65575U 25203L   26169.85225191  .00000189  00000+0  15647-3 0  9990
2 65575  81.3029   8.9731 0009179 182.5028 177.6084 13.85039303 38945
PRAETORIAN SDA_613      
1 65576U 25203M   26169.51034505  .00000043  00000+0  28710-4 0  9996
2 65576  81.2998   9.7050 0005635 180.0483 180.0673 13.82765156 38866
PRAETORIAN SDA_614      
1 65577U 25203N   26168.97470263  .00000016  00000+0  33012-5 0  9993
2 65577  81.3014   9.8650 0007037 181.5884 178.5252 13.84777941 38821
PRAETORIAN SDA_615      
1 65578U 25203P   26169.81903694  .00000190  00000+0  15890-3 0  9992
2 65578  81.3026   9.0471 0008978 181.4275 178.6857 13.84435260 38935
PRAETORIAN SDA_616      
1 65579U 25203Q   26169.79166317  .00000093  00000+0  74394-4 0  9990
2 65579  81.3063   9.5918 0005580 189.6159 170.4892 13.83265911 38904
PRAETORIAN SDA_617      
1 65580U 25203R   26169.81340345  .00000029  00000+0  15675-4 0  9996
2 65580  81.3036   9.4040 0007349 179.6193 180.4970 13.83150127 38914
PRAETORIAN SDA_618      
1 65581U 25203S   26169.85707200  .00000146  00000+0  11968-3 0  9998
2 65581  81.3017   8.9407 0009682 183.3086 176.8009 13.84669855 38949
PRAETORIAN SDA_619      
1 65582U 25203T   26169.60484491  .00000157  00000+0  13148-3 0  9990
2 65582  81.3041   9.4734 0008216 181.5911 178.5221 13.83805897 39522
PRAETORIAN SDA_620      
1 65583U 25203U   26169.84996688  .00000268  00000+0  23161-3 0  9992
2 65583  81.3032   9.2683 0007654 176.7891 183.3316 13.83617716 38925
PRAETORIAN SDA_621      
1 65584U 25203V   26169.67892617  .00000050  00000+0  34006-4 0  9991
2 65584  81.3020   9.3437 0007432 174.5676 185.5562 13.83801426 38900
PRAETORIAN SDA_601      
1 65585U 25203W   26169.79491440  .00000157  00000+0  13286-3 0  9998
2 65585  81.3037   9.5340 0005341 190.6570 169.4474 13.83167666 38907
